API_UWI,Unformatted_API_UWI,WellName,Country,StateProvince,County,ENVOperator,StateWellType,Formation,FirstProdDate,Latitude,Longitude,Latitude_BH,Longitude_BH,TVD_FT,MD_FT,Field,Section,Township,Range,Section_Township_Range,ElevationKB_FT,ElevationGL_FT,PermitApprovedDate,DrillingEndDate,StateFileNumber,UpperPerf_FT,LowerPerf_FT,FirstProdYear
25-083-21789,2508321789,G. MARTIN  1-1R,US,MT,RICHLAND,SAMSON OIL AND GAS USA,OIL,NISKU,1990-08-01,48.03111308469717,-104.29328816668995,,,,12550.0,"Sioux Pass, North",01,026N,057E,01-026N-057E,,1964.0,1990-06-01,,,,,*Pre-2010
25-085-21698,2508521698,SAMPSEN  44-27H,US,MT,ROOSEVELT,SAMSON OIL AND GAS USA,INJECTION - DISPOSAL,RATCLIFFE,2006-10-01,48.31970362668972,-104.15331998740997,48.32986258532592,-104.16884821138738,,14215.0,Wildcat Roosevelt,27,030N,058E,27-030N-058E,2341.0,2321.0,2005-11-15,,,,,*Pre-2010
33-053-02408,3305302408,BUXBAUM     1-6,US,ND,MCKENZIE,SAMSON OIL AND GAS,OIL & GAS,MADISON POOL,1992-12-01,47.84694254240412,-104.03591728377873,,,,9103.0,HARDING,06,150N,104W,06-150N-104W,1908.0,1894.0,,,13431,9008,9030,*Pre-2010
25-083-21138,2508321138,MCGINNIS  1-34,US,MT,RICHLAND,SAMSON OIL AND GAS USA,OIL,RED RIVER,1976-09-01,47.95995866010095,-104.3357912534165,,,,12690.0,"Sioux Pass, Middle",34,026N,057E,34-026N-057E,2309.0,2297.0,1976-06-21,,,,,*Pre-2010
25-083-21882,2508321882,FEDERAL  C-17,US,MT,RICHLAND,SAMSON OIL AND GAS USA,OIL,NISKU,2000-12-01,48.00912974708553,-104.26254279300456,,,,12650.0,"Sioux Pass, North",17,026N,058E,17-026N-058E,2122.0,2099.0,2000-08-08,,,,,*Pre-2010
25-085-21700,2508521700,PICARD  44-29H,US,MT,ROOSEVELT,SAMSON OIL AND GAS USA,OIL,RATCLIFFE,2006-09-01,48.318661950641165,-104.19670068308817,48.329541,-104.213655,,14653.0,Gunsight,29,030N,058E,29-030N-058E,2418.0,2393.0,2006-02-02,,,,,*Pre-2010
33-053-02602,3305302602,SCHMIDT 1-25H,US,ND,MCKENZIE,SAMSON OIL AND GAS,OIL & GAS,RATCLIFFE,2005-04-01,47.78786899999999,-103.68820699999999,47.777676541231436,-103.67153377964857,9377.0,14645.0,FOREMAN BUTTE,25,150N,102W,25-150N-102W,2168.0,2169.0,2004-06-25,2005-03-16,15622,9388,14645,*Pre-2010
33-053-02602,3305302602,SCHMIDT 1-25H,US,ND,MCKENZIE,SAMSON OIL AND GAS,OIL & GAS,RATCLIFFE,2005-04-01,47.78786899999999,-103.68820699999999,47.777676541231436,-103.67153377964857,9378.0,14645.0,FOREMAN BUTTE,25,150N,102W,25-150N-102W,2168.0,2169.0,2004-06-25,,,9388,14645,*Pre-2010
25-085-21803,2508521803,AUSTRALIA IV  12 KA 16,US,MT,ROOSEVELT,SAMSON OIL AND GAS USA,OIL,,,48.20244048715988,-104.72020503591587,48.213725,-104.737985,,15256.0,Wildcat Roosevelt,03,028N,054E,03-028N-054E,,2032.0,2011-07-06,,,,,
33-053-02592,3305302592,KILLEBREW 1-28H,US,ND,MCKENZIE,SAMSON OIL AND GAS,OIL & GAS,RATCLIFFE,2004-09-01,47.7888437,-103.75239709999998,47.77838559346731,-103.73749187925462,9433.0,14530.0,FOREMAN BUTTE,28,150N,102W,28-150N-102W,2286.0,2273.0,2004-04-20,2004-08-16,15587,9442,14530,*Pre-2010
33-053-02592,3305302592,KILLEBREW 1-28H,US,ND,MCKENZIE,SAMSON OIL AND GAS,OIL & GAS,RATCLIFFE,2004-09-01,47.7888437,-103.75239709999998,47.77838559346731,-103.73749187925462,9433.0,14530.0,FOREMAN BUTTE,28,150N,102W,28-150N-102W,2286.0,2273.0,2004-04-20,,,9442,14530,*Pre-2010
33-053-02635,3305302635,GALARRAGA 1-2H,US,ND,MCKENZIE,SAMSON OIL AND GAS,OIL & GAS,MADISON,2005-07-01,47.747872,-103.691676,47.759514820732335,-103.7093429082112,9445.0,15300.0,FOREMAN BUTTE,02,149N,102W,02-149N-102W,2252.0,2241.0,2005-03-15,2005-07-03,15763,9510,15300,*Pre-2010
33-053-02635,3305302635,GALARRAGA 1-2H,US,ND,MCKENZIE,SAMSON OIL AND GAS,OIL & GAS,MADISON,2005-07-01,47.747872,-103.691676,47.759514820732335,-103.7093429082112,9445.0,15300.0,FOREMAN BUTTE,02,149N,102W,02-149N-102W,2252.0,2241.0,2005-03-15,,,9510,15300,*Pre-2010
33-053-02596,3305302596,TIMBER CREEK 1-34H,US,ND,MCKENZIE,SAMSON OIL AND GAS,OIL & GAS,RATCLIFFE,2004-08-01,47.936837,-103.585956,47.94713118601418,-103.6012663882144,9379.0,14465.0,CAMP,34,152N,101W,34-152N-101W,2022.0,2008.0,2004-05-05,2004-07-28,15596,9196,14465,*Pre-2010
33-053-02596,3305302596,TIMBER CREEK 1-34H,US,ND,MCKENZIE,SAMSON OIL AND GAS,OIL & GAS,RATCLIFFE,2004-08-01,47.936837,-103.585956,47.94713118601418,-103.6012663882144,9379.0,14465.0,CAMP,34,152N,101W,34-152N-101W,2022.0,2008.0,2004-05-05,,,9196,14465,*Pre-2010
25-085-21651,2508521651,PANASUK  43X-4,US,MT,ROOSEVELT,SAMSON OIL AND GAS USA,OIL,RATCLIFFE,2000-08-01,48.291597896709426,-104.17541500300356,48.303371,-104.178694,,13152.0,Target,04,029N,058E,04-029N-058E,2431.0,2416.0,2000-06-22,,,,,*Pre-2010
33-105-01432,3310501432,BERGER 1-22H,US,ND,WILLIAMS,SAMSON OIL AND GAS,OIL & GAS,NESSON,1997-05-01,48.31534009797717,-103.53297576944206,48.32429280550555,-103.53429058672215,9237.0,12356.0,EAST FORK,22,156N,100W,22-156N-100W,2093.0,2077.0,,1997-04-16,14614,9510,12356,*Pre-2010
33-053-02623,3305302623,EVANS 1-10H,US,ND,MCKENZIE,SAMSON OIL AND GAS,OIL & GAS,RATCLIFFE,2005-02-01,47.83382399999999,-103.73209,47.82077569577256,-103.7140583021161,9371.0,15439.0,FOREMAN BUTTE,10,150N,102W,10-150N-102W,2185.0,2171.0,2004-12-10,2005-01-26,15715,9480,15439,*Pre-2010
33-053-02623,3305302623,EVANS 1-10H,US,ND,MCKENZIE,SAMSON OIL AND GAS,OIL & GAS,RATCLIFFE,2005-02-01,47.83382399999999,-103.73209,47.82077569577256,-103.7140583021161,9371.0,15439.0,FOREMAN BUTTE,10,150N,102W,10-150N-102W,2185.0,2171.0,2004-12-10,,,9480,15439,*Pre-2010
33-105-01436,3310501436,SANDBERG 1-21H,US,ND,WILLIAMS,SAMSON OIL AND GAS,OIL & GAS,NESSON,1997-08-01,48.3152698310366,-103.55025205969328,48.32562293494299,-103.55724339743212,9083.0,13049.0,EAST FORK,21,156N,100W,21-156N-100W,1989.0,1976.0,,1997-07-14,14659,9453,13049,*Pre-2010
33-105-00819,3310500819,BROWN 1-8,US,ND,WILLIAMS,SAMSON OIL AND GAS,OIL & GAS,MISSION CANYON,1980-04-01,48.26431935708871,-103.44172166191662,48.26781283559925,-103.43486890594245,9358.0,14094.0,EPPING,08,155N,099W,08-155N-099W,2116.0,2090.0,,1980-03-17,7405,9456,9530,*Pre-2010
33-105-00819,3310500819,BROWN 1-8,US,ND,WILLIAMS,SAMSON OIL AND GAS,OIL & GAS,MISSION CANYON,1980-04-01,48.26431935708871,-103.44172166191662,48.26781283559925,-103.43486890594245,9358.0,11371.0,EPPING,08,155N,099W,08-155N-099W,2116.0,2090.0,,,,9171,11371,*Pre-2010
33-053-02686,3305302686,SHEFFIELD 1-30H,US,ND,MCKENZIE,SAMSON OIL AND GAS,OIL & GAS,MADISON POOL,2006-04-01,47.789826999999995,-103.6673943,47.77984234771137,-103.65339427330724,9447.0,14062.0,PRONGHORN,30,150N,101W,30-150N-101W,2230.0,2216.0,,2006-02-18,16070,9547,14107,*Pre-2010
25-085-21696,2508521696,PICARD  11-34H,US,MT,ROOSEVELT,SAMSON OIL AND GAS USA,OIL,RATCLIFFE,2006-05-01,48.31564961963776,-104.17134714710149,48.30309756397439,-104.15591204479936,,14709.0,Gunsight,34,030N,058E,34-030N-058E,2338.0,2325.0,2005-09-28,,,,,*Pre-2010
33-053-02485,3305302485,FLYNN     31-33,US,ND,MCKENZIE,SAMSON OIL AND GAS,OIL & GAS,MADISON POOL,1996-01-01,47.85951907315241,-103.99871137770438,,,,9650.0,HARDING,33,151N,104W,33-151N-104W,1901.0,1881.0,,,13824,8929,9162,*Pre-2010
33-053-02618,3305302618,MATTHEWS  1-13H,US,ND,MCKENZIE,SAMSON OIL AND GAS,OIL & GAS,NESSON AND RATCLIFFE,2005-08-01,47.818721,-103.68899799999998,47.806978,-103.672143,9523.0,14731.0,FOREMAN BUTTE,13,150N,102W,13-150N-102W,2226.0,2208.0,2004-10-26,2005-07-18,15680,9975,14731,*Pre-2010
33-053-02618,3305302618,MATTHEWS  1-13H,US,ND,MCKENZIE,SAMSON OIL AND GAS,OIL & GAS,NESSON AND RATCLIFFE,2005-08-01,47.818721,-103.68899799999998,47.806978,-103.672143,9523.0,14731.0,FOREMAN BUTTE,13,150N,102W,13-150N-102W,2226.0,2208.0,2004-10-26,,,9975,14731,*Pre-2010
33-053-02618,3305302618,MATTHEWS  1-13H,US,ND,MCKENZIE,SAMSON OIL AND GAS,OIL & GAS,NESSON AND RATCLIFFE,2005-08-01,47.818721,-103.68899799999998,47.806978,-103.672143,9404.0,15006.0,FOREMAN BUTTE,13,150N,102W,13-150N-102W,2226.0,2208.0,2004-10-26,,,9571,15006,*Pre-2010
33-053-90087,3305390087,DANIELSON 4-32 SWD,US,ND,MCKENZIE,SAMSON OIL AND GAS,SALT WATER DISPOSAL,,,47.85007663330751,-104.02976720198748,,,,5688.0,HARDING,32,151N,104W,32-151N-104W,1905.0,1899.0,,,90087,5456,5598,
25-083-21800,2508321800,YELLOWSTONE  1-19A,US,MT,RICHLAND,SAMSON OIL AND GAS USA,OIL,RATCLIFFE,1993-07-01,47.90193557968388,-104.14213288477134,,,,9200.0,FAIRVIEW,19,025N,059E,19-025N-059E,2173.0,2159.0,1991-11-04,,,,,*Pre-2010
25-091-21548,2509121548,STUBBE  1,US,MT,SHERIDAN,SAMSON OIL AND GAS USA,OIL,MADISON,1984-09-01,48.91838506502032,-104.06655836722015,,,,10603.0,"Flat Lake, East",34,037N,058E,34-037N-058E,,2096.0,1984-06-05,,,,,*Pre-2010
33-053-02582,3305302582,FORTHUN 2-1,US,ND,MCKENZIE,SAMSON OIL AND GAS,OIL & GAS,MADISON POOL,2004-03-01,47.923714000000004,-103.54373199999999,47.93102470308504,-103.55568226889348,9546.0,13232.0,CAMP,01,151N,101W,01-151N-101W,2132.0,2118.0,2004-01-12,2004-02-24,15529,9415,13232,*Pre-2010
33-053-02582,3305302582,FORTHUN 2-1,US,ND,MCKENZIE,SAMSON OIL AND GAS,OIL & GAS,MADISON POOL,2004-03-01,47.923714000000004,-103.54373199999999,47.93102470308504,-103.55568226889348,9545.0,13232.0,CAMP,01,151N,101W,01-151N-101W,2132.0,2118.0,2004-01-12,,,9375,13232,*Pre-2010
33-105-03301,3310503301,RAINBOW  5-20-17HBK,US,ND,WILLIAMS,SAMSON OIL AND GAS,OIL & GAS,,,48.48763504876031,-103.37905611646622,,,,,RAINBOW,29,158N,098W,29-158N-098W,,2247.0,2013-11-04,,,,,
33-105-01534,3310501534,MILLER 1-14H,US,ND,WILLIAMS,SAMSON OIL AND GAS,OIL & GAS,RATCLIFFE,2005-08-01,48.0686592203422,-103.88599954427293,48.080098962961216,-103.90334944519495,9164.0,14960.0,LAKE TRENTON,14,153N,103W,14-153N-103W,2108.0,2095.0,2005-03-23,2005-08-04,15771,9602,14960,*Pre-2010
25-083-21795,2508321795,FEDERAL  D-20,US,MT,RICHLAND,SAMSON OIL AND GAS USA,OIL,RED RIVER,1991-02-01,47.99474733005524,-104.26317373175876,,,,12485.0,"Sioux Pass, North",20,026N,058E,20-026N-058E,2019.0,2000.0,1990-12-26,,,,,*Pre-2010
33-053-02666,3305302666,BENCH  1-5H,US,ND,MCKENZIE,SAMSON OIL AND GAS,OIL & GAS,MADISON POOL,2006-02-01,47.8372222,-103.75607219999999,47.846642677260505,-103.77377804427196,9421.0,14700.0,FOREMAN BUTTE,05,150N,102W,05-150N-102W,2262.0,2248.0,2005-06-28,2006-01-19,15883,9533,14700,*Pre-2010
33-053-02666,3305302666,BENCH  1-5H,US,ND,MCKENZIE,SAMSON OIL AND GAS,OIL & GAS,MADISON POOL,2006-02-01,47.8372222,-103.75607219999999,47.846642677260505,-103.77377804427196,9421.0,14700.0,FOREMAN BUTTE,05,150N,102W,05-150N-102W,2262.0,2248.0,2005-06-28,,,9533,14700,*Pre-2010
25-085-21375,2508521375,CRUSCH  3-42,US,MT,ROOSEVELT,SAMSON OIL AND GAS USA,INJECTION - DISPOSAL,MISSION CANYON,1982-06-01,48.2969612162517,-104.15419647295813,,,,9685.0,Gunsight,03,029N,058E,03-029N-058E,2412.0,2398.0,1982-02-16,,,,,*Pre-2010
25-085-21690,2508521690,PICARD  24-28H,US,MT,ROOSEVELT,SAMSON OIL AND GAS USA,OIL,RATCLIFFE,2005-07-01,48.3175938510415,-104.18404351696671,48.329613,-104.189903,,13521.0,Gunsight,28,030N,058E,28-030N-058E,2346.0,2328.0,2005-04-11,,,,,*Pre-2010
33-105-03921,3310503921,RAINBOW  9-19-18HTF,US,ND,WILLIAMS,SAMSON OIL AND GAS,OIL & GAS,,,48.48768688592794,-103.389527492615,,,,,RAINBOW,30,158N,098W,30-158N-098W,,2241.0,2014-12-12,,,,,
25-085-21821,2508521821,GRETEL II  12 KA 3,US,MT,ROOSEVELT,SAMSON OIL AND GAS USA,OIL,MIDDLE BAKKEN,2012-06-01,48.160096088887165,-104.85311934116639,48.147734,-104.834254,8922.0,15555.0,"Elm Coulee, Northeast",22,028N,053E,22-028N-053E,1978.0,1954.0,2011-10-18,,8720,11772,15358,2012
33-053-02484,3305302484,KLEIN  23-33,US,ND,MCKENZIE,SAMSON OIL AND GAS,OIL & GAS,MULTIPLE,1996-02-01,47.85400211991442,-104.00388475829928,,,,12852.0,HARDING,33,151N,104W,33-151N-104W,1899.0,1881.0,,,13823,8921,12490,*Pre-2010
33-053-02583,3305302583,AARON 1-22,US,ND,MCKENZIE,SAMSON OIL AND GAS,OIL & GAS,RATCLIFFE,2004-07-01,47.802971,-103.728925,47.79309359826802,-103.71456260255562,9467.0,14400.0,FOREMAN BUTTE,22,150N,102W,22-150N-102W,2266.0,2266.0,2004-02-03,2004-04-08,15541,9424,14400,*Pre-2010
33-053-02594,3305302594,SCHMITZ 44-35H,US,ND,MCKENZIE,SAMSON OIL AND GAS,OIL & GAS,RIVAL,2004-07-01,48.025088919374646,-103.75808401285425,48.03710337095064,-103.76285057494508,9124.0,12859.0,INDIAN HILL,35,153N,102W,35-153N-102W,1887.0,1873.0,2004-04-28,2004-06-26,15594,9298,13629,*Pre-2010
33-053-02594,3305302594,SCHMITZ 44-35H,US,ND,MCKENZIE,SAMSON OIL AND GAS,OIL & GAS,RIVAL,2004-07-01,48.025088919374646,-103.75808401285425,48.03710337095064,-103.76285057494508,9131.0,13629.0,INDIAN HILL,35,153N,102W,35-153N-102W,1887.0,1873.0,2004-04-28,,,9298,13629,*Pre-2010
33-053-02611,3305302611,JACKSON  1-29H,US,ND,MCKENZIE,SAMSON OIL AND GAS,OIL & GAS,RATCILFFE,2005-02-01,47.776528080000006,-103.75167970000001,47.7887830892984,-103.77379089883956,9325.0,16100.0,FOREMAN BUTTE,28,150N,102W,28-150N-102W,2167.0,2149.0,2004-09-20,2005-01-09,15666,10255,16100,*Pre-2010
33-053-02611,3305302611,JACKSON  1-29H,US,ND,MCKENZIE,SAMSON OIL AND GAS,OIL & GAS,RATCILFFE,2005-02-01,47.776528080000006,-103.75167970000001,47.7887830892984,-103.77379089883956,9325.0,16100.0,FOREMAN BUTTE,28,150N,102W,28-150N-102W,2167.0,2149.0,2004-09-20,,,10255,16100,*Pre-2010
33-053-02631,3305302631,SNIDER  1-11H,US,ND,MCKENZIE,SAMSON OIL AND GAS,OIL & GAS,RATCLIFFE,2005-05-01,47.820242,-103.69166900000002,47.82992904606236,-103.70641156546117,9393.0,15220.0,FOREMAN BUTTE,11,150N,102W,11-150N-102W,2223.0,2209.0,2005-01-14,2005-05-14,15743,9456,15220,*Pre-2010
33-053-02631,3305302631,SNIDER  1-11H,US,ND,MCKENZIE,SAMSON OIL AND GAS,OIL & GAS,RATCLIFFE,2005-05-01,47.820242,-103.69166900000002,47.82992904606236,-103.70641156546117,9393.0,15220.0,FOREMAN BUTTE,11,150N,102W,11-150N-102W,2223.0,2209.0,2005-01-14,,,9456,15220,*Pre-2010
33-053-02658,3305302658,BELLE 1-12H,US,ND,MCKENZIE,SAMSON OIL AND GAS,OIL & GAS,RATCLIFFE,2005-12-01,47.746232600000006,-103.6892943,47.740653,-103.677834,9440.0,15108.0,FOREMAN BUTTE,12,149N,102W,12-149N-102W,2249.0,2235.0,2005-05-23,2005-11-07,15840,9480,15108,*Pre-2010
33-053-02698,3305302698,MUSIAL  1-18H,US,ND,MCKENZIE,SAMSON OIL AND GAS,OIL & GAS,NESSON MISSION CANYON,2006-08-01,47.811532010855004,-103.66801568983601,47.80229754874579,-103.6581954017965,9581.0,13395.0,PRONGHORN,18,150N,101W,18-150N-101W,2284.0,2284.0,2006-02-06,2006-06-05,16132,9888,13395,*Pre-2010
33-053-02609,3305302609,FOXX 1-26H,US,ND,MCKENZIE,SAMSON OIL AND GAS,OIL & GAS,MADISON POOL,2005-01-01,47.78970805,-103.71064980000001,47.778353614186585,-103.69359743189594,9434.0,14888.0,FOREMAN BUTTE,26,150N,102W,26-150N-102W,2246.0,2237.0,2004-09-03,2004-12-12,15655,9525,14888,*Pre-2010
33-053-02609,3305302609,FOXX 1-26H,US,ND,MCKENZIE,SAMSON OIL AND GAS,OIL & GAS,MADISON POOL,2005-01-01,47.78970805,-103.71064980000001,47.778353614186585,-103.69359743189594,9434.0,14888.0,FOREMAN BUTTE,26,150N,102W,26-150N-102W,2246.0,2237.0,2004-09-03,,,9525,14888,*Pre-2010
33-053-02625,3305302625,MURPHY 1-1H,US,ND,MCKENZIE,SAMSON OIL AND GAS,OIL & GAS,RATCLIFFE,2005-03-01,47.76005425,-103.6882631,47.74938137798776,-103.67223695362428,9518.0,14757.0,FOREMAN BUTTE,01,149N,102W,01-149N-102W,2312.0,2294.0,2004-12-17,2005-02-26,15718,9560,14757,*Pre-2010
25-085-21689,2508521689,PICARD TRUST  31-32H,US,MT,ROOSEVELT,SAMSON OIL AND GAS USA,OIL,RATCLIFFE,2005-06-01,48.31551942816128,-104.20246519922316,48.305292,-104.212976,,13600.0,Gunsight,32,030N,058E,32-030N-058E,2358.0,2341.0,2005-03-21,,,,,*Pre-2010
33-023-00099,3302300099,KITTELSON A-1,US,ND,DIVIDE,SAMSON OIL AND GAS,OIL & GAS,MADISON POOL,1968-04-01,48.81328351653617,-104.0270233034072,,,,7087.0,EAST GOOSE LAKE,35,162N,103W,35-162N-103W,2126.0,2115.0,,,4391,6932,6935,*Pre-2010
33-053-02581,3305302581,LINDVIG 44-11H,US,ND,MCKENZIE,SAMSON OIL AND GAS,OIL & GAS,MADISON,2004-03-01,47.993443340000006,-103.56560460000001,48.00598808197556,-103.56513418903086,9309.0,13746.0,CAMP,11,152N,101W,11-152N-101W,1945.0,1931.0,2003-12-08,2004-02-15,15523,9543,13746,*Pre-2010
33-053-02597,3305302597,SOSA 1-15,US,ND,MCKENZIE,SAMSON OIL AND GAS,OIL & GAS,RATCLIFFE,2004-09-01,47.80686699999999,-103.71665400000002,47.817318934736605,-103.73037052074433,9263.0,14232.0,FOREMAN BUTTE,15,150N,102W,15-150N-102W,2146.0,2132.0,2004-05-07,2004-09-22,15599,9299,14232,*Pre-2010
33-053-02597,3305302597,SOSA 1-15,US,ND,MCKENZIE,SAMSON OIL AND GAS,OIL & GAS,RATCLIFFE,2004-09-01,47.80686699999999,-103.71665400000002,47.817318934736605,-103.73037052074433,9263.0,14232.0,FOREMAN BUTTE,15,150N,102W,15-150N-102W,2146.0,2132.0,2004-05-07,,,9299,14232,*Pre-2010
33-053-02385,3305302385,KARST 1-5X,US,ND,MCKENZIE,SAMSON OIL AND GAS,OIL & GAS,MADISON POOL,1992-06-01,47.84588237572273,-104.02865406099095,,,,9150.0,HARDING,05,150N,104W,05-150N-104W,1911.0,1897.0,,,13357,8920,9040,*Pre-2010
25-085-21636,2508521636,KROGEDAL  21-21,US,MT,ROOSEVELT,SAMSON OIL AND GAS USA,OIL,NISKU,1998-03-01,48.255534991900205,-104.18710431260331,48.256281,-104.181628,,11887.0,"Burget, East",21,029N,058E,21-029N-058E,2376.0,2358.0,1997-12-08,,,,,*Pre-2010
25-083-21593,2508321593,SALSBURY  1-22A,US,MT,RICHLAND,SAMSON OIL AND GAS USA,OIL,RATCLIFFE MISSION CANYON,1982-02-01,47.9867685721672,-104.21511875170664,,,,12810.0,"Sioux Pass, North",22,026N,058E,22-026N-058E,,2198.0,1981-10-09,,,,,*Pre-2010
25-085-21681,2508521681,STATE  31-16H,US,MT,ROOSEVELT,SAMSON OIL AND GAS USA,OIL,RATCLIFFE,2004-08-01,48.27280516873841,-104.05089093442177,48.260909,-104.05044,,13360.0,Red Bank,16,029N,059E,16-029N-059E,2401.0,2378.0,2004-05-06,,,,,*Pre-2010
25-085-21818,2508521818,AUSTRALIA III  12 KA 9,US,MT,ROOSEVELT,SAMSON OIL AND GAS USA,OIL,,,48.159903040673306,-104.69547843638348,48.145042,-104.679058,,15937.0,Wildcat Roosevelt,24,028N,054E,24-028N-054E,,2128.0,2011-09-30,,,,,
33-053-02660,3305302660,LINK 13-2HA,US,ND,MCKENZIE,SAMSON OIL AND GAS,OIL & GAS,RATCLIFFE,2006-03-01,47.84066474616719,-103.71099908781002,47.83531224302141,-103.69257268390159,9314.0,13995.0,NAMELESS,02,150N,102W,02-150N-102W,2141.0,2118.0,2005-06-03,2006-01-27,15844,9504,13995,*Pre-2010
25-085-21691,2508521691,BRISKE  11-5H,US,MT,ROOSEVELT,SAMSON OIL AND GAS USA,OIL,RATCLIFFE,2006-06-01,48.30070402111488,-104.21506213375103,48.298989,-104.187249,,15710.0,Gunsight,05,029N,058E,05-029N-058E,2328.0,2306.0,2005-05-31,,,,,*Pre-2010
25-085-21677,2508521677,STATE  14-16H,US,MT,ROOSEVELT,SAMSON OIL AND GAS USA,OIL,RATCLIFFE,2003-12-01,48.26026252032757,-104.06058869906795,48.271626,-104.060993,,13000.0,Red Bank,16,029N,059E,16-029N-059E,2379.0,2368.0,2003-09-11,,,,,*Pre-2010
33-053-02473,3305302473,DANIELSON 3-32,US,ND,MCKENZIE,SAMSON OIL AND GAS,OIL & GAS,MADISON POOL,1994-12-01,47.85311694604598,-104.02116768023875,,,,9250.0,HARDING,32,151N,104W,32-151N-104W,1913.0,1893.0,,,13707,8920,8960,*Pre-2010
33-053-02439,3305302439,WEST     1-31,US,ND,MCKENZIE,SAMSON OIL AND GAS,OIL & GAS,MADISON POOL,1993-10-01,47.85146718716487,-104.03592778841043,,,,10230.0,HARDING,31,151N,104W,31-151N-104W,1911.0,1897.0,,,13561,8887,9088,*Pre-2010
33-053-02474,3305302474,DANIELSON 2-32,US,ND,MCKENZIE,SAMSON OIL AND GAS,OIL & GAS,MULTIPLE,1994-12-01,47.849912152038584,-104.0297666919685,,,,12810.0,HARDING,32,151N,104W,32-151N-104W,1913.0,1893.0,,,13708,12618,12654,*Pre-2010
33-053-02474,3305302474,DANIELSON 2-32,US,ND,MCKENZIE,SAMSON OIL AND GAS,OIL & GAS,MULTIPLE,1994-12-01,47.849912152038584,-104.0297666919685,,,,12810.0,HARDING,32,151N,104W,32-151N-104W,1913.0,1893.0,,,13708,11558,11568,*Pre-2010
33-053-02474,3305302474,DANIELSON 2-32,US,ND,MCKENZIE,SAMSON OIL AND GAS,OIL & GAS,MULTIPLE,1994-12-01,47.849912152038584,-104.0297666919685,,,,12810.0,HARDING,32,151N,104W,32-151N-104W,1913.0,1893.0,,,13708,8829,8920,*Pre-2010
33-053-02593,3305302593,ROBINSON 1-17H,US,ND,MCKENZIE,SAMSON OIL AND GAS,OIL & GAS,RATCLIFFE,2004-11-01,47.806659999999994,-103.75719300000002,47.81742750472678,-103.77335280561704,9369.0,14768.0,FOREMAN BUTTE,17,150N,102W,17-150N-102W,2234.0,2217.0,2004-04-22,2004-09-22,15588,9350,14768,*Pre-2010
25-083-21884,2508321884,FEDERAL RICHTER  F-7,US,MT,RICHLAND,SAMSON OIL AND GAS USA,OIL,NISKU,2001-03-01,48.02240690039469,-104.28269263212864,48.022016,-104.279202,,13445.0,"Sioux Pass, North",07,026N,058E,07-026N-058E,2042.0,2021.0,2000-09-11,,,,,*Pre-2010
33-053-02739,3305302739,MARTINEZ 1-32H,US,ND,MCKENZIE,SAMSON OIL AND GAS,OIL & GAS,RATCLIFFE,2006-08-01,47.8622409,-103.7768749,47.84981180749693,-103.75703649230525,9200.0,15415.0,GLASS BLUFF,31,151N,102W,31-151N-102W,2069.0,2051.0,2006-06-05,2006-07-24,16270,9575,15415,*Pre-2010
33-053-02739,3305302739,MARTINEZ 1-32H,US,ND,MCKENZIE,SAMSON OIL AND GAS,OIL & GAS,RATCLIFFE,2006-08-01,47.8622409,-103.7768749,47.84981180749693,-103.75703649230525,9200.0,15415.0,GLASS BLUFF,31,151N,102W,31-151N-102W,2069.0,2051.0,2006-06-05,,,9575,15415,*Pre-2010
33-053-02585,3305302585,BONDS 1-24H,US,ND,MCKENZIE,SAMSON OIL AND GAS,OIL & GAS,RATCLIFFE,2004-07-01,47.803436999999995,-103.68802,47.79413681617402,-103.67425591409696,9427.0,13842.0,FOREMAN BUTTE,24,150N,102W,24-150N-102W,2232.0,2218.0,2004-03-08,2004-05-19,15556,9380,13842,*Pre-2010
33-053-02585,3305302585,BONDS 1-24H,US,ND,MCKENZIE,SAMSON OIL AND GAS,OIL & GAS,RATCLIFFE,2004-07-01,47.803436999999995,-103.68802,47.79413681617402,-103.67425591409696,9427.0,13842.0,FOREMAN BUTTE,24,150N,102W,24-150N-102W,2232.0,2218.0,2004-03-08,,,9380,13842,*Pre-2010
25-085-21684,2508521684,PICARD  11-33H,US,MT,ROOSEVELT,SAMSON OIL AND GAS USA,OIL,RATCLIFFE,2004-10-01,48.31542026124116,-104.19370210723746,48.311756,-104.176487,,13602.0,Gunsight,33,030N,058E,33-030N-058E,2447.0,2399.0,2004-07-21,,,,,*Pre-2010
33-053-02590,3305302590,MANTLE 1-21H,US,ND,MCKENZIE,SAMSON OIL AND GAS,OIL & GAS,RATCLIFFE,2004-07-01,47.79372300000001,-103.736672,47.80301324601885,-103.75195192415673,9395.0,14250.0,FOREMAN BUTTE,21,150N,102W,21-150N-102W,2243.0,2230.0,2004-04-19,2004-06-29,15584,9373,14250,*Pre-2010
33-053-02590,3305302590,MANTLE 1-21H,US,ND,MCKENZIE,SAMSON OIL AND GAS,OIL & GAS,RATCLIFFE,2004-07-01,47.79372300000001,-103.736672,47.80301324601885,-103.75195192415673,9395.0,14250.0,FOREMAN BUTTE,21,150N,102W,21-150N-102W,2243.0,2230.0,2004-04-19,,,9373,14250,*Pre-2010
33-053-02736,3305302736,R. FIELD  1-22H,US,ND,MCKENZIE,SAMSON OIL AND GAS,OIL & GAS,MADISON POOL,2007-02-01,47.889538751107494,-103.989652119619,47.88039047088524,-103.97402952646645,9054.0,13693.0,DORE,22,151N,104W,22-151N-104W,1906.0,1886.0,2006-06-01,,16262,9405,13663,*Pre-2010
33-053-02736,3305302736,R. FIELD  1-22H,US,ND,MCKENZIE,SAMSON OIL AND GAS,OIL & GAS,MADISON POOL,2007-02-01,47.889538751107494,-103.989652119619,47.88039047088524,-103.97402952646645,9055.0,13693.0,DORE,22,151N,104W,22-151N-104W,1906.0,1886.0,2006-06-01,,,9405,13693,*Pre-2010
33-105-01275,3310501275,FOSTER 1-32,US,ND,WILLIAMS,SAMSON OIL AND GAS,OIL & GAS,NESSON,1989-07-01,48.12468153686135,-103.70982181550353,48.11728889061677,-103.69780201287811,9209.0,13100.0,TODD,32,154N,101W,32-154N-101W,1961.0,1938.0,,,,,,*Pre-2010
33-105-01275,3310501275,FOSTER 1-32,US,ND,WILLIAMS,SAMSON OIL AND GAS,OIL & GAS,NESSON,1989-07-01,48.12468153686135,-103.70982181550353,48.11728889061677,-103.69780201287811,9209.0,9437.0,TODD,32,154N,101W,32-154N-101W,1961.0,1938.0,,1989-07-02,12030,9198,9218,*Pre-2010
33-105-01275,3310501275,FOSTER 1-32,US,ND,WILLIAMS,SAMSON OIL AND GAS,OIL & GAS,NESSON,1989-07-01,48.12468153686135,-103.70982181550353,48.11728889061677,-103.69780201287811,9209.0,13100.0,TODD,32,154N,101W,32-154N-101W,1961.0,1938.0,,1989-07-02,,9395,13100,*Pre-2010
33-105-01275,3310501275,FOSTER 1-32,US,ND,WILLIAMS,SAMSON OIL AND GAS,OIL & GAS,NESSON,1989-07-01,48.12468153686135,-103.70982181550353,48.11728889061677,-103.69780201287811,9211.0,13100.0,TODD,32,154N,101W,32-154N-101W,1961.0,1938.0,,,,9013,13100,*Pre-2010
33-053-02605,3305302605,MAYS 1-20H,US,ND,MCKENZIE,SAMSON OIL AND GAS,WATER INJECTION,MADISON POOL,2004-12-01,47.789801,-103.753827,47.8021950063638,-103.77222325964428,9447.0,15300.0,FOREMAN BUTTE,28,150N,102W,28-150N-102W,2284.0,2266.0,2004-08-13,2004-10-06,15646,10070,15300,*Pre-2010
33-053-02763,3305302763,SNUFFY STIRNWEISS 1-33H,US,ND,MCKENZIE,SAMSON OIL AND GAS,OIL & GAS,MADISON POOL,2007-01-01,47.8620548,-103.7539777,47.85000484047726,-103.73574476905588,9281.0,15220.0,FOREMAN BUTTE,33,151N,102W,33-151N-102W,2140.0,2116.0,2006-10-04,2006-11-16,16397,9425,15220,*Pre-2010
33-053-02763,3305302763,SNUFFY STIRNWEISS 1-33H,US,ND,MCKENZIE,SAMSON OIL AND GAS,OIL & GAS,MADISON POOL,2007-01-01,47.8620548,-103.7539777,47.85000484047726,-103.73574476905588,9281.0,15220.0,FOREMAN BUTTE,33,151N,102W,33-151N-102W,2140.0,2116.0,2006-10-04,,,9425,15220,*Pre-2010
33-053-02601,3305302601,PALMEIRO 1-14H,US,ND,MCKENZIE,SAMSON OIL AND GAS,OIL & GAS,RATCLIFFE,2004-10-01,47.806580999999994,-103.69411000000001,47.816629348828265,-103.70816336463042,9447.0,14360.0,FOREMAN BUTTE,14,150N,102W,14-150N-102W,2272.0,2258.0,2004-06-25,2004-09-11,15621,9416,14360,*Pre-2010
33-053-02615,3305302615,DWYER 1-33H,US,ND,MCKENZIE,SAMSON OIL AND GAS,OIL & GAS,RATCLIFFE,2005-06-01,47.948419,-103.62289399999999,47.93849690161978,-103.60952009272876,9346.0,13924.0,CAMP,33,152N,101W,33-152N-101W,2121.0,2108.0,2004-10-22,2005-05-13,15673,9343,13924,*Pre-2010
33-053-02615,3305302615,DWYER 1-33H,US,ND,MCKENZIE,SAMSON OIL AND GAS,OIL & GAS,RATCLIFFE,2005-06-01,47.948419,-103.62289399999999,47.93849690161978,-103.60952009272876,9346.0,13924.0,CAMP,33,152N,101W,33-152N-101W,2121.0,2108.0,2004-10-22,,,9343,13924,*Pre-2010
33-053-02637,3305302637,CARTER 1-9H,US,ND,MCKENZIE,SAMSON OIL AND GAS,OIL & GAS,RATCLIFF,2005-06-01,47.820077,-103.73442000000001,47.83204073439522,-103.75212182762402,9300.0,15190.0,FOREMAN BUTTE,09,150N,102W,09-150N-102W,2143.0,2125.0,2005-03-15,2005-05-21,15765,9400,15191,*Pre-2010
33-053-02637,3305302637,CARTER 1-9H,US,ND,MCKENZIE,SAMSON OIL AND GAS,OIL & GAS,RATCLIFF,2005-06-01,47.820077,-103.73442000000001,47.83204073439522,-103.75212182762402,9300.0,15190.0,FOREMAN BUTTE,09,150N,102W,09-150N-102W,2143.0,2125.0,2005-03-15,,,9400,15191,*Pre-2010
33-105-01402,3310501402,OWEN 1,US,ND,WILLIAMS,SAMSON OIL AND GAS,OIL & GAS,MADISON POOL,1991-02-01,48.13781762722976,-103.72579796982573,,,,9500.0,TODD,30,154N,101W,30-154N-101W,2062.0,2050.0,,,13085,9350,9357,*Pre-2010
25-083-21720,2508321720,GROSVOLD  1,US,MT,RICHLAND,SAMSON OIL AND GAS USA,OIL,RATCLIFFE,1984-08-01,47.96388802925752,-104.20727920502947,,,,12712.0,Otis Creek,34,026N,058E,34-026N-058E,2116.0,2095.0,1984-04-30,,,,,*Pre-2010
25-085-21704,2508521704,CYRUS  44-30H,US,MT,ROOSEVELT,SAMSON OIL AND GAS USA,INJECTION - DISPOSAL,RATCLIFFE,2007-10-01,48.31878828465464,-104.21936241593357,48.329487,-104.235106,,14100.0,Wildcat Roosevelt,30,030N,058E,30-030N-058E,2349.0,2335.0,2006-05-22,,,,,*Pre-2010
33-053-02604,3305302604,BANKS  1-18H,US,ND,MCKENZIE,SAMSON OIL AND GAS,OIL & GAS,RATCILFFE,2004-12-01,47.817477999999994,-103.795034,47.807144593732346,-103.77909683849546,9275.0,14413.0,FOREMAN BUTTE,18,150N,102W,18-150N-102W,2111.0,2098.0,2004-08-11,2005-02-06,15644,9254,14413,*Pre-2010
33-053-02604,3305302604,BANKS  1-18H,US,ND,MCKENZIE,SAMSON OIL AND GAS,OIL & GAS,RATCILFFE,2004-12-01,47.817477999999994,-103.795034,47.807144593732346,-103.77909683849546,9273.0,14413.0,FOREMAN BUTTE,18,150N,102W,18-150N-102W,2111.0,2098.0,2004-08-11,,,9254,14413,*Pre-2010
25-085-21697,2508521697,RIDDLE  11-31H,US,MT,ROOSEVELT,SAMSON OIL AND GAS USA,OIL,RATCLIFFE,2006-03-01,48.31556943841775,-104.2354220376335,48.315357345307184,-104.23571936433856,,14364.0,Gunsight,31,030N,058E,31-030N-058E,2348.0,2329.0,2005-10-03,,,,,*Pre-2010
33-053-02442,3305302442,ANDREWS     1-5,US,ND,MCKENZIE,SAMSON OIL AND GAS,OIL & GAS,MADISON POOL,1993-11-01,47.84580026356691,-104.0211647485309,,,,9154.0,HARDING,05,150N,104W,05-150N-104W,1906.0,1892.0,,,13576,8902,9076,*Pre-2010
25-083-21109,2508321109,SALSBURY  2-22,US,MT,RICHLAND,SAMSON OIL AND GAS USA,INJECTION - DISPOSAL,,,47.99314330701744,-104.2234498564468,,,,12890.0,"Sioux Pass, North",22,026N,058E,22-026N-058E,,2302.0,1975-01-22,,,,,
33-053-02591,3305302591,LYLE  1-35H,US,ND,MCKENZIE,SAMSON OIL AND GAS,OIL & GAS,NESSON,2004-07-01,47.94781699999999,-103.580861,47.939063611549415,-103.56760698938655,9376.0,13652.0,CAMP,35,152N,101W,35-152N-101W,1993.0,1980.0,2004-04-20,2004-06-09,15586,9172,13652,*Pre-2010
33-053-02591,3305302591,LYLE  1-35H,US,ND,MCKENZIE,SAMSON OIL AND GAS,OIL & GAS,NESSON,2004-07-01,47.94781699999999,-103.580861,47.939063611549415,-103.56760698938655,9376.0,13652.0,CAMP,35,152N,101W,35-152N-101W,1993.0,1980.0,2004-04-20,,,9172,13652,*Pre-2010
33-053-02639,3305302639,GONZALEZ 1-8H,US,ND,MCKENZIE,SAMSON OIL AND GAS,OIL & GAS,RATCLIFFE,2005-09-01,47.83406699999999,-103.77288499999999,47.826867,-103.770621,9340.0,15050.0,FOREMAN BUTTE,05,150N,102W,05-150N-102W,2177.0,2159.0,2005-03-18,2005-08-29,15767,9711,15050,*Pre-2010
33-053-02639,3305302639,GONZALEZ 1-8H,US,ND,MCKENZIE,SAMSON OIL AND GAS,OIL & GAS,RATCLIFFE,2005-09-01,47.83406699999999,-103.77288499999999,47.826867,-103.770621,9340.0,15050.0,FOREMAN BUTTE,05,150N,102W,05-150N-102W,2177.0,2159.0,2005-03-18,,,9711,15050,*Pre-2010
25-085-21473,2508521473,BERWICK  1,US,MT,ROOSEVELT,SAMSON OIL AND GAS USA,OIL,RED RIVER,1984-10-01,48.14483086017754,-104.20615581215154,,,,12466.0,Bainville,27,028N,058E,27-028N-058E,1972.0,1953.0,1984-07-03,,,,,*Pre-2010
25-085-21473,2508521473,BERWICK  1,US,MT,ROOSEVELT,SAMSON OIL AND GAS USA,OIL,RED RIVER,1984-10-01,48.14483086017754,-104.20615581215154,,,,12466.0,Bainville,27,028N,058E,27-028N-058E,1972.0,1953.0,1984-07-03,,,,,*Pre-2010
33-053-02580,3305302580,RUTH 1-23,US,ND,MCKENZIE,SAMSON OIL AND GAS,OIL & GAS,RATCLIFFE,2004-01-01,47.802202,-103.70911500000001,47.796131198777054,-103.69377827649049,9347.0,13400.0,FOREMAN BUTTE,23,150N,102W,23-150N-102W,2166.0,2152.0,2003-10-23,2004-01-03,15511,9629,13400,*Pre-2010
33-053-02580,3305302580,RUTH 1-23,US,ND,MCKENZIE,SAMSON OIL AND GAS,OIL & GAS,RATCLIFFE,2004-01-01,47.802202,-103.70911500000001,47.796131198777054,-103.69377827649049,9343.0,13400.0,FOREMAN BUTTE,23,150N,102W,23-150N-102W,2166.0,2152.0,2003-10-23,,,9460,13400,*Pre-2010
33-105-01520,3310501520,MOEN  12-2H,US,ND,WILLIAMS,SAMSON OIL AND GAS,OIL & GAS,MADISON,2004-04-01,48.277905059008624,-103.38726382270457,48.28996316768082,-103.38096536235038,9463.0,13980.0,EAST FORK,02,155N,099W,02-155N-099W,2164.0,2150.0,2004-01-13,2004-03-19,15533,9725,13980,*Pre-2010
25-083-21509,2508321509,SALSBURY  1-27,US,MT,RICHLAND,SAMSON OIL AND GAS USA,OIL,MADISON,1981-09-01,47.98085992356124,-104.21698046494511,,,,12847.0,"Sioux Pass, North",27,026N,058E,27-026N-058E,,2240.0,1981-04-21,,,,,*Pre-2010
25-083-21634,2508321634,PENNZOIL STATE  1H,US,MT,RICHLAND,SAMSON OIL AND GAS USA,OIL,BAKKEN,1982-07-01,47.75017281699849,-104.40170825808657,47.753126644905684,-104.40674271031143,,12565.0,Elm Coulee,16,023N,057E,16-023N-057E,2457.0,2442.0,1982-02-08,,,,,*Pre-2010
25-083-21600,2508321600,USA MARTIN  P-7,US,MT,RICHLAND,SAMSON OIL AND GAS USA,OIL,RATCLIFFE,1982-03-01,48.01565585064346,-104.2714299801243,,,,12576.0,"Sioux Pass, North",07,026N,058E,07-026N-058E,,2064.0,1981-10-30,,,,,*Pre-2010
25-083-21725,2508321725,STATE PASS  1,US,MT,RICHLAND,SAMSON OIL AND GAS USA,OIL,RATCLIFFE,1984-12-01,48.006693230720956,-104.23420010449259,,,,12710.0,"Sioux Pass, North",16,026N,058E,16-026N-058E,2172.0,2156.0,1984-06-19,,,,,*Pre-2010
25-085-21682,2508521682,TININENKO  24-24H,US,MT,ROOSEVELT,SAMSON OIL AND GAS USA,OIL,RATCLIFFE,2004-09-01,48.245197240157374,-104.12197183695598,48.256808,-104.126615,,13756.0,Red Bank,24,029N,058E,24-029N-058E,2531.0,2517.0,2004-06-08,,,,,*Pre-2010
33-105-03300,3310503300,RAINBOW  10-19-18HBK,US,ND,WILLIAMS,SAMSON OIL AND GAS,OIL & GAS,,,48.48768676773799,-103.38965126782504,,,,,RAINBOW,30,158N,098W,30-158N-098W,,2240.0,2013-11-04,,,,,
33-053-02659,3305302659,KINGMAN 1-12H,US,ND,MCKENZIE,SAMSON OIL AND GAS,OIL & GAS,MADISON,2006-07-01,47.818547658576996,-103.79575000556399,47.832254986969396,-103.81644973516484,9245.0,16200.0,FOREMAN BUTTE,18,150N,102W,18-150N-102W,2110.0,2092.0,2005-05-23,2006-06-18,15841,10400,16200,*Pre-2010
33-053-02564,3305302564,KARST  13-5,US,ND,MCKENZIE,SAMSON OIL AND GAS,OIL & GAS,MADISON POOL,2003-09-01,47.83923220868494,-104.03065520929987,,,,9305.0,HARDING,05,150N,104W,05-150N-104W,1911.0,1897.0,2003-06-03,,15433,9024,9050,*Pre-2010
33-053-02636,3305302636,THOMAS 1-36H,US,ND,MCKENZIE,SAMSON OIL AND GAS,OIL & GAS,RATCLIFFE,2005-09-01,47.77513500000001,-103.688823,47.763685293245274,-103.67196024092028,9480.0,15101.0,FOREMAN BUTTE,36,150N,102W,36-150N-102W,2263.0,2249.0,2005-03-15,2005-08-13,15764,9536,15101,*Pre-2010
33-053-02636,3305302636,THOMAS 1-36H,US,ND,MCKENZIE,SAMSON OIL AND GAS,OIL & GAS,RATCLIFFE,2005-09-01,47.77513500000001,-103.688823,47.763685293245274,-103.67196024092028,9480.0,15101.0,FOREMAN BUTTE,36,150N,102W,36-150N-102W,2263.0,2249.0,2005-03-15,,,9536,15101,*Pre-2010
25-083-21551,2508321551,OBERGFELL  1,US,MT,RICHLAND,SAMSON OIL AND GAS USA,OIL,MISSION CANYON,1982-04-01,47.741305777749304,-104.41408804626998,,,,12650.0,PUTNAM,21,023N,057E,21-023N-057E,2620.0,2606.0,1981-07-21,,,,,*Pre-2010
33-105-01531,3310501531,IVA  1-6H,US,ND,WILLIAMS,SAMSON OIL AND GAS,OIL & GAS,NEESON,2006-03-01,48.02354133011867,-103.79795504730265,48.01041059479337,-103.78118874567643,9126.0,15050.0,EIGHTMILE,01,152N,103W,01-152N-103W,1875.0,1862.0,2004-12-20,2006-01-01,15728,9690,15050,*Pre-2010
33-105-01531,3310501531,IVA  1-6H,US,ND,WILLIAMS,SAMSON OIL AND GAS,OIL & GAS,NEESON,2006-03-01,48.02354133011867,-103.79795504730265,48.01041059479337,-103.78118874567643,9126.0,15050.0,EIGHTMILE,01,152N,103W,01-152N-103W,1875.0,1862.0,2004-12-20,,,9690,15050,*Pre-2010
33-105-01530,3310501530,GIBBINS 1-11H,US,ND,WILLIAMS,SAMSON OIL AND GAS,OIL & GAS,RATCLIFFE,2005-04-01,48.1827595072185,-103.90549296647329,48.17142202750314,-103.88833166619351,9216.0,14718.0,PAINTED WOODS,11,154N,103W,11-154N-103W,2258.0,2245.0,2004-12-17,2005-03-25,15719,9224,14719,*Pre-2010
33-105-01530,3310501530,GIBBINS 1-11H,US,ND,WILLIAMS,SAMSON OIL AND GAS,OIL & GAS,RATCLIFFE,2005-04-01,48.1827595072185,-103.90549296647329,48.17142202750314,-103.88833166619351,9216.0,14718.0,PAINTED WOODS,11,154N,103W,11-154N-103W,2258.0,2245.0,2004-12-17,,,9224,14719,*Pre-2010
25-083-21842,2508321842,FEDERAL  1-17R,US,MT,RICHLAND,SAMSON OIL AND GAS USA,OIL,RED RIVER,1996-08-01,48.01057118466451,-104.25863326394328,,,,12660.0,"Sioux Pass, North",17,026N,058E,17-026N-058E,,2142.0,1996-06-19,,,,,*Pre-2010
33-053-02621,3305302621,LASSEY 1-15H,US,ND,MCKENZIE,SAMSON OIL AND GAS,OIL & GAS,RATCLIFFE,2005-11-01,47.904377,-103.85930099999999,47.89341692068214,-103.8427682515949,9218.0,14596.0,GLASS BLUFF,15,151N,103W,15-151N-103W,2138.0,2123.0,2004-11-23,2005-11-27,15695,9423,14596,*Pre-2010
33-053-02621,3305302621,LASSEY 1-15H,US,ND,MCKENZIE,SAMSON OIL AND GAS,OIL & GAS,RATCLIFFE,2005-11-01,47.904377,-103.85930099999999,47.89341692068214,-103.8427682515949,9218.0,14596.0,GLASS BLUFF,15,151N,103W,15-151N-103W,2138.0,2123.0,2004-11-23,,,9243,14596,*Pre-2010
33-053-02093,3305302093,DANIELSON 1-32,US,ND,MCKENZIE,SAMSON OIL AND GAS,OIL & GAS,MULTIPLE,1985-12-01,47.8500766526365,-104.02874795132293,,,,11000.0,HARDING,32,151N,104W,32-151N-104W,1913.0,1896.0,,,11713,9034,10546,*Pre-2010
33-053-02595,3305302595,MARIS 1-16H,US,ND,MCKENZIE,SAMSON OIL AND GAS,OIL & GAS,RATCLIFFE,2004-09-01,47.81776099999999,-103.75240799999999,47.808188046107496,-103.73752028373993,9279.0,14059.0,FOREMAN BUTTE,16,150N,102W,16-150N-102W,2122.0,2108.0,2004-04-30,2004-07-19,15595,9283,14059,*Pre-2010
33-053-02595,3305302595,MARIS 1-16H,US,ND,MCKENZIE,SAMSON OIL AND GAS,OIL & GAS,RATCLIFFE,2004-09-01,47.81776099999999,-103.75240799999999,47.808188046107496,-103.73752028373993,9280.0,14059.0,FOREMAN BUTTE,16,150N,102W,16-150N-102W,2122.0,2108.0,2004-04-30,,,9283,14059,*Pre-2010
33-053-02699,3305302699,HODGES  1-1H,US,ND,MCKENZIE,SAMSON OIL AND GAS,OIL & GAS,MADISON POOL,2006-05-01,47.8369154818839,-103.80061798934203,47.84673697148265,-103.81662358868552,9182.0,14255.0,FOREMAN BUTTE,01,150N,103W,01-150N-103W,2047.0,2029.0,2006-02-06,2006-04-07,16133,9200,14255,*Pre-2010
33-053-02699,3305302699,HODGES  1-1H,US,ND,MCKENZIE,SAMSON OIL AND GAS,OIL & GAS,MADISON POOL,2006-05-01,47.8369154818839,-103.80061798934203,47.84673697148265,-103.81662358868552,9183.0,14255.0,FOREMAN BUTTE,01,150N,103W,01-150N-103W,2047.0,2029.0,2006-02-06,,,9200,14255,*Pre-2010
33-105-01437,3310501437,TOMMY 1-20H,US,ND,WILLIAMS,SAMSON OIL AND GAS,OIL & GAS,MADISON | NESSON,1997-09-01,48.31524194987467,-103.56447220781536,48.32499306495385,-103.56946261579144,9047.0,13097.0,EAST FORK,20,156N,100W,20-156N-100W,1924.0,1910.0,,1997-08-25,14707,9606,13097,*Pre-2010
33-105-01437,3310501437,TOMMY 1-20H,US,ND,WILLIAMS,SAMSON OIL AND GAS,OIL & GAS,MADISON | NESSON,1997-09-01,48.31524194987467,-103.56447220781536,48.32499306495385,-103.56946261579144,9057.0,12450.0,EAST FORK,20,156N,100W,20-156N-100W,1924.0,1910.0,,1997-08-25,,9057,12450,*Pre-2010
33-105-01437,3310501437,TOMMY 1-20H,US,ND,WILLIAMS,SAMSON OIL AND GAS,OIL & GAS,MADISON | NESSON,1997-09-01,48.31524194987467,-103.56447220781536,48.32499306495385,-103.56946261579144,9057.0,12445.0,EAST FORK,20,156N,100W,20-156N-100W,1924.0,1910.0,,,,9268,12449,*Pre-2010
25-083-21118,2508321118,FEDERAL  1-8,US,MT,RICHLAND,SAMSON OIL AND GAS USA,INJECTION - DISPOSAL,RED RIVER NISKU,1976-02-01,48.014320309084844,-104.26185330319781,,,,12643.0,"Sioux Pass, North",08,026N,058E,08-026N-058E,,2123.0,1975-09-23,,,,,*Pre-2010
25-085-21708,2508521708,BERWICK  44-27H,US,MT,ROOSEVELT,SAMSON OIL AND GAS USA,OIL,RATCLIFFE,2007-10-01,48.144407282628364,-104.20687452485397,48.154743861625846,-104.21110527025914,,12353.0,Bainville,27,028N,058E,27-028N-058E,,1961.0,2006-08-23,,,,,*Pre-2010
33-053-02633,3305302633,LINDVIG 14-12H,US,ND,MCKENZIE,SAMSON OIL AND GAS,OIL & GAS,RIVAL,2005-05-01,47.993688,-103.560574,48.005949870497936,-103.54296859163098,9317.0,15372.0,CAMP,12,152N,101W,12-152N-101W,1917.0,1898.0,2005-03-01,2005-04-12,15756,9560,15418,*Pre-2010
33-053-02722,3305302722,SCHMITZ 44-35HA,US,ND,MCKENZIE,SAMSON OIL AND GAS,OIL & GAS,MADISON,2006-08-01,48.025065431099705,-103.758361028632,48.036279650208996,-103.77116455291728,9011.0,14449.0,INDIAN HILL,35,153N,102W,35-153N-102W,1895.0,1873.0,2006-05-04,2006-07-12,16218,9301,13613,*Pre-2010
33-053-02665,3305302665,SCHMITZ 44-30H,US,ND,MCKENZIE,SAMSON OIL AND GAS,OIL & GAS,MADISON POOL,2006-01-01,47.952946499999996,-103.5205138,47.962612231875895,-103.5379010877417,9319.0,14704.0,CAMP,30,152N,100W,30-152N-100W,2029.0,2005.0,2005-06-27,2005-12-26,15879,9703,14704,*Pre-2010
33-053-02668,3305302668,RIPKEN JR 1-7H,US,ND,MCKENZIE,SAMSON OIL AND GAS,OIL & GAS,MADISON POOL,2006-03-01,47.8204937,-103.77673879999998,47.83218930509395,-103.79450477818077,9337.0,15149.0,FOREMAN BUTTE,07,150N,102W,07-150N-102W,2190.0,2172.0,2005-08-03,2006-02-19,15914,9559,15149,*Pre-2010
33-053-02668,3305302668,RIPKEN JR 1-7H,US,ND,MCKENZIE,SAMSON OIL AND GAS,OIL & GAS,MADISON POOL,2006-03-01,47.8204937,-103.77673879999998,47.83218930509395,-103.79450477818077,9338.0,15149.0,FOREMAN BUTTE,07,150N,102W,07-150N-102W,2190.0,2172.0,2005-08-03,,,9553,15149,*Pre-2010
33-053-02584,3305302584,LINK 13-2H,US,ND,MCKENZIE,SAMSON OIL AND GAS,OIL & GAS,MADISON,2004-06-01,47.84004244999999,-103.71108100000001,47.83576728103059,-103.69282385299374,9417.0,14015.0,NAMELESS,02,150N,102W,02-150N-102W,2125.0,2111.0,2004-03-03,2004-05-20,15551,9604,14013,*Pre-2010
33-105-01544,3310501544,R.E. BEARCE 1-1H,US,ND,WILLIAMS,SAMSON OIL AND GAS,OIL & GAS,NESSON | RATCLIFFE,2006-08-01,48.00932653096556,-103.80025983629936,48.010287,-103.801276,9017.0,14819.0,EIGHTMILE,01,152N,103W,01-152N-103W,1889.0,1865.0,2005-06-28,2006-07-11,15884,9018,13851,*Pre-2010
33-105-01544,3310501544,R.E. BEARCE 1-1H,US,ND,WILLIAMS,SAMSON OIL AND GAS,OIL & GAS,NESSON | RATCLIFFE,2006-08-01,48.00932653096556,-103.80025983629936,48.010287,-103.801276,9017.0,14819.0,EIGHTMILE,01,152N,103W,01-152N-103W,1889.0,1865.0,2005-06-28,,,9018,14818,*Pre-2010
33-105-01544,3310501544,R.E. BEARCE 1-1H,US,ND,WILLIAMS,SAMSON OIL AND GAS,OIL & GAS,NESSON | RATCLIFFE,2006-08-01,48.00932653096556,-103.80025983629936,48.010287,-103.801276,9126.0,13851.0,EIGHTMILE,01,152N,103W,01-152N-103W,1889.0,1865.0,2005-06-28,,,9018,13851,*Pre-2010
25-085-21643,2508521643,CRUSCH  22X-3,US,MT,ROOSEVELT,SAMSON OIL AND GAS USA,OIL,RATCLIFFE,2000-01-01,48.2951509142426,-104.16502111603295,48.300576,-104.170383,,11301.0,Target,03,029N,058E,03-029N-058E,2433.0,2418.0,1999-10-22,,,,,*Pre-2010
33-053-02688,3305302688,KINER 1-36H,US,ND,MCKENZIE,SAMSON OIL AND GAS,OIL & GAS,MADISON POOL,2006-05-01,47.8488259218574,-103.79865962367901,47.86073418235991,-103.81633682179505,9172.0,14995.0,GLASS BLUFF,36,151N,103W,36-151N-103W,2040.0,2020.0,2005-12-29,2006-04-25,16084,9344,14995,*Pre-2010
33-053-02688,3305302688,KINER 1-36H,US,ND,MCKENZIE,SAMSON OIL AND GAS,OIL & GAS,MADISON POOL,2006-05-01,47.8488259218574,-103.79865962367901,47.86073418235991,-103.81633682179505,9173.0,14995.0,GLASS BLUFF,36,151N,103W,36-151N-103W,2040.0,2020.0,2005-12-29,,,9344,14995,*Pre-2010
33-053-02719,3305302719,PEDERSON  1-10H,US,ND,MCKENZIE,SAMSON OIL AND GAS,OIL & GAS,NESSON,2006-11-01,47.993202100000005,-103.19928320000001,48.00511705657938,-103.21545769560983,9569.0,15852.0,BANKS,10,152N,098W,10-152N-098W,2024.0,2004.0,2006-04-19,2006-10-15,16196,9830,15852,*Pre-2010
33-053-02719,3305302719,PEDERSON  1-10H,US,ND,MCKENZIE,SAMSON OIL AND GAS,OIL & GAS,NESSON,2006-11-01,47.993202100000005,-103.19928320000001,48.00511705657938,-103.21545769560983,9569.0,15852.0,BANKS,10,152N,098W,10-152N-098W,2024.0,2004.0,2006-04-19,,,9830,15852,*Pre-2010
33-105-01441,3310501441,KERMIT 1-13H,US,ND,WILLIAMS,SAMSON OIL AND GAS,OIL & GAS,NESSON,1997-10-01,48.24262604114184,-103.62348007627509,48.253054,-103.608485,9181.0,14156.0,Cow Creek,13,155N,101W,13-155N-101W,1965.0,1952.0,,1997-10-03,14723,9190,9490,*Pre-2010
33-105-01441,3310501441,KERMIT 1-13H,US,ND,WILLIAMS,SAMSON OIL AND GAS,OIL & GAS,NESSON,1997-10-01,48.24262604114184,-103.62348007627509,48.253054,-103.608485,9181.0,14156.0,Cow Creek,13,155N,101W,13-155N-101W,1965.0,1952.0,,1997-10-03,,9470,14156,*Pre-2010
33-105-01441,3310501441,KERMIT 1-13H,US,ND,WILLIAMS,SAMSON OIL AND GAS,OIL & GAS,NESSON,1997-10-01,48.24262604114184,-103.62348007627509,48.253054,-103.608485,9181.0,14156.0,Cow Creek,13,155N,101W,13-155N-101W,1965.0,1952.0,,,,9470,14156,*Pre-2010
33-105-01380,3310501380,DAVIDSON 1,US,ND,WILLIAMS,SAMSON OIL AND GAS,OIL & GAS,MULTIPLE,1989-12-01,48.12704913609959,-103.70462572549381,,,,13500.0,TODD,29,154N,101W,29-154N-101W,1939.0,1922.0,,,12730,9190,9208,*Pre-2010
33-053-02654,3305302654,NETTLES 1-4H,US,ND,MCKENZIE,SAMSON OIL AND GAS,OIL & GAS,RATCLIFFE,2005-10-01,47.834773222739,-103.736234930561,47.846177888881996,-103.75230988654656,9301.0,14860.0,FOREMAN BUTTE,04,150N,102W,04-150N-102W,2150.0,2132.0,2005-04-22,2005-10-11,15807,9360,14860,*Pre-2010
33-053-02654,3305302654,NETTLES 1-4H,US,ND,MCKENZIE,SAMSON OIL AND GAS,OIL & GAS,RATCLIFFE,2005-10-01,47.834773222739,-103.736234930561,47.846177888881996,-103.75230988654656,9301.0,14860.0,FOREMAN BUTTE,04,150N,102W,04-150N-102W,2150.0,2132.0,2005-04-22,,,9360,14860,*Pre-2010
33-053-02606,3305302606,MCGWIRE 1-27H,US,ND,MCKENZIE,SAMSON OIL AND GAS,OIL & GAS,MADISON POOL,2004-11-01,47.788827,-103.73093300000001,47.7779924609052,-103.71451326009193,9422.0,14740.0,FOREMAN BUTTE,27,150N,102W,27-150N-102W,2244.0,2231.0,2004-08-13,2004-10-30,15647,9394,14740,*Pre-2010
33-053-02606,3305302606,MCGWIRE 1-27H,US,ND,MCKENZIE,SAMSON OIL AND GAS,OIL & GAS,MADISON POOL,2004-11-01,47.788827,-103.73093300000001,47.7779924609052,-103.71451326009193,9422.0,14740.0,FOREMAN BUTTE,27,150N,102W,27-150N-102W,2244.0,2231.0,2004-08-13,,,9395,14740,*Pre-2010
33-105-01523,3310501523,METZGER-ROBINSON 24-29H,US,ND,WILLIAMS,SAMSON OIL AND GAS,OIL & GAS,RIVAL,2004-09-01,48.29969139792473,-103.5743064730884,48.311836430103234,-103.58063595185571,9050.0,13587.0,EAST FORK,29,156N,100W,29-156N-100W,1914.0,1891.0,2004-06-07,2004-08-21,15610,9281,13585,*Pre-2010
25-085-21814,2508521814,AUSTRALIA II  12 KA 6,US,MT,ROOSEVELT,SAMSON OIL AND GAS USA,OIL,MIDDLE BAKKEN,2012-05-01,48.157226992632786,-104.65096518460604,48.14507320647457,-104.63524106955451,9495.0,14972.0,"Elm Coulee, Northeast",29,028N,055E,29-028N-057E,1946.0,1922.0,2011-09-15,,8719,9909,14866,2012
33-053-02608,3305302608,WILLIAMS  1-19H,US,ND,MCKENZIE,SAMSON OIL AND GAS,OIL & GAS,RATCLIFFE,2005-02-01,47.805348,-103.79712500000002,47.792934197890666,-103.77928394790796,9254.0,15050.0,FOREMAN BUTTE,18,150N,102W,18-150N-102W,2101.0,2088.0,2004-08-23,2004-12-31,15649,9610,15050,*Pre-2010
33-053-02608,3305302608,WILLIAMS  1-19H,US,ND,MCKENZIE,SAMSON OIL AND GAS,OIL & GAS,RATCLIFFE,2005-02-01,47.805348,-103.79712500000002,47.792934197890666,-103.77928394790796,9254.0,15050.0,FOREMAN BUTTE,18,150N,102W,18-150N-102W,2101.0,2088.0,2004-08-23,,,9610,15051,*Pre-2010
